[{"OBJECT_NAME":"GNOMES-5","OBJECT_ID":"2024-149DL","EPOCH":"2026-03-09T22:53:01.372704","MEAN_MOTION":15.00280005,"ECCENTRICITY":0.00076217,"INCLINATION":97.6857,"RA_OF_ASC_NODE":148.0235,"ARG_OF_PERICENTER":89.6268,"MEAN_ANOMALY":270.5829,"EPHEMERIS_TYPE":0,"CLASSIFICATION_TYPE":"U","NORAD_CAT_ID":60574,"ELEMENT_SET_NO":999,"REV_AT_EPOCH":8527,"BSTAR":0.00047414566,"MEAN_MOTION_DOT":5.885e-5,"MEAN_MOTION_DDOT":0},{"OBJECT_NAME":"STARLINK-34755","OBJECT_ID":"2025-158J","EPOCH":"2026-03-09T14:46:16.628736","MEAN_MOTION":15.01256845,"ECCENTRICITY":0.0001828,"INCLINATION":97.6011,"RA_OF_ASC_NODE":294.6464,"ARG_OF_PERICENTER":46.7056,"MEAN_ANOMALY":313.4321,"EPHEMERIS_TYPE":0,"CLASSIFICATION_TYPE":"U","NORAD_CAT_ID":64940,"ELEMENT_SET_NO":999,"REV_AT_EPOCH":3538,"BSTAR":3.0929e-5,"MEAN_MOTION_DOT":3.39e-6,"MEAN_MOTION_DDOT":0}]
